{"version": 0.6, "generator": "Overpass API 0.7.62.5 1bd436f1", "osm3s": {"timestamp_osm_base": "2025-04-16T18:52:29Z", "copyright": "The data included in this document is from www.openstreetmap.org. The data is made available under ODbL."}, "elements": [{"type": "node", "id": 17316319, "lat": 57.365879, "lon": -5.812953, "tags": {"natural": "cave_entrance", "source": "survey"}}, {"type": "node", "id": 340062990, "lat": 57.4561555, "lon": -5.8000476, "tags": {"name": "Hartfield Cave", "natural": "cave_entrance"}}, {"type": "node", "id": 357623844, "lat": 57.2373223, "lon": -5.8607041, "tags": {"name": "Breakish Cave", "natural": "cave_entrance", "source": "survey"}}, {"type": "node", "id": 461709055, "lat": 57.1871729, "lon": -5.9317171, "tags": {"natural": "cave_entrance", "source": "survey"}}, {"type": "node", "id": 567630859, "lat": 57.4271283, "lon": -5.8052136, "tags": {"cave:depth": "11", "cave:length": "34", "name": "Flake Pot", "natural": "cave_entrance", "source": "survey"}}, {"type": "node", "id": 621360602, "lat": 57.2063086, "lon": -5.9713575, "tags": {"natural": "cave_entrance", "source": "survey"}}, {"type": "node", "id": 621410938, "lat": 57.2068481, "lon": -5.9572397, "tags": {"natural": "cave_entrance", "source": "survey"}}, {"type": "node", "id": 621410939, "lat": 57.2068651, "lon": -5.9579462, "tags": {"natural": "cave_entrance", "source": "survey"}}, {"type": "node", "id": 621410953, "lat": 57.2039894, "lon": -5.9628564, "tags": {"natural": "cave_entrance", "source": "survey"}}, {"type": "node", "id": 633212565, "lat": 57.2072394, "lon": -5.9584434, "tags": {"natural": "cave_entrance", "source": "survey"}}, {"type": "node", "id": 633216804, "lat": 57.2086103, "lon": -5.9578189, "tags": {"natural": "cave_entrance", "source": "survey"}}, {"type": "node", "id": 633216805, "lat": 57.2089611, "lon": -5.9574977, "tags": {"natural": "cave_entrance", "source": "survey"}}, {"type": "node", "id": 633216810, "lat": 57.2092281, "lon": -5.9567536, "tags": {"natural": "cave_entrance", "source": "survey"}}, {"type": "node", "id": 842586408, "lat": 57.4333801, "lon": -5.5760689, "tags": {"name": "Uamh nan Righ", "name:en": "Cave of Kings", "name:gd": "Uamh nan Righ", "natural": "cave_entrance", "source": "survey"}}, {"type": "node", "id": 842586411, "lat": 57.4374052, "lon": -5.5642291, "tags": {"name": "Uamh a' Ghlais-chnoic", "name:en": "Glasnock Cave", "name:gd": "Uamh a' Ghlais-chnoic", "natural": "cave_entrance", "source": "survey"}}, {"type": "node", "id": 1250464705, "lat": 57.426586, "lon": -5.8088918, "tags": {"cave:length": "600", "name": "Uamh nam Fior Iongantais", "name:en": "Cave of True Wonders", "name:gd": "Uamh nam Fior Iongantais", "natural": "cave_entrance", "source": "survey"}}, {"type": "node", "id": 1250464707, "lat": 57.4263151, "lon": -5.8088005, "tags": {"name": "FRN1", "natural": "cave_entrance", "source": "survey"}}, {"type": "node", "id": 2242673187, "lat": 57.2052323, "lon": -5.9597327, "tags": {"cave:depth": "3.7", "cave:length": "23", "ele": "76", "name:en": "Mossy Hollow Cave", "name:gd": "Uamh an Cos Mointeachail", "natural": "cave_entrance", "ref": "34", "source": "survey"}}, {"type": "node", "id": 2242673188, "lat": 57.2056755, "lon": -5.9587486, "tags": {"ele": "61", "natural": "cave_entrance", "ref": "43", "source": "survey"}}, {"type": "node", "id": 2242673190, "lat": 57.2046166, "lon": -5.9615973, "tags": {"ele": "91", "natural": "cave_entrance", "ref": "33", "source": "survey"}}, {"type": "node", "id": 2242673210, "lat": 57.2040881, "lon": -5.9647344, "tags": {"cave:depth": "4.6", "cave:length": "9.1", "natural": "cave_entrance", "ref": "24"}}, {"type": "node", "id": 2242673217, "lat": 57.2044345, "lon": -5.9653649, "tags": {"natural": "cave_entrance", "source": "survey"}}, {"type": "node", "id": 2242673218, "lat": 57.2045908, "lon": -5.9658138, "tags": {"natural": "cave_entrance", "source": "survey"}}, {"type": "node", "id": 2242673219, "lat": 57.2046851, "lon": -5.9664263, "tags": {"natural": "cave_entrance", "source": "survey"}}, {"type": "node", "id": 2242673220, "lat": 57.2047614, "lon": -5.9664614, "tags": {"natural": "cave_entrance", "source": "survey"}}, {"type": "node", "id": 2242673221, "lat": 57.2047052, "lon": -5.9667629, "tags": {"natural": "cave_entrance", "ref": "30", "source": "survey"}}, {"type": "node", "id": 2242673222, "lat": 57.2051287, "lon": -5.9674415, "tags": {"cave:depth": "7.6", "cave:length": "27.4", "name:en": "Shelf Cave", "name:gd": "Uamh an t-Shelf", "natural": "cave_entrance", "ref": "22", "source": "survey"}}, {"type": "node", "id": 2242673230, "lat": 57.2048982, "lon": -5.9671669, "tags": {"natural": "cave_entrance", "source": "survey"}}, {"type": "node", "id": 2242679061, "lat": 57.2057986, "lon": -5.9685585, "tags": {"cave:length": "7.6", "natural": "cave_entrance", "ref": "31"}}, {"type": "node", "id": 2242679062, "lat": 57.2059652, "lon": -5.9684533, "tags": {"natural": "cave_entrance", "source": "survey"}}, {"type": "node", "id": 2242679093, "lat": 57.2059143, "lon": -5.9687545, "tags": {"natural": "cave_entrance", "source": "survey"}}, {"type": "node", "id": 2531298572, "lat": 57.2210263, "lon": -5.9173525, "tags": {"fixme": "survey", "name": "Frustration Hole", "natural": "cave_entrance", "source": "Bing"}}, {"type": "node", "id": 3958772533, "lat": 57.426983, "lon": -5.8033082, "tags": {"cave:depth": "10", "cave:length": "598", "name": "Poll Breugair", "name:en": "Liars' Sink", "name:gd": "Poll Breugair", "natural": "cave_entrance"}}, {"type": "node", "id": 3958772534, "lat": 57.4271012, "lon": -5.8036734, "tags": {"cave:length": "500", "name": "Uamh a' Bhreagaire", "name:en": "Cave of the Liar", "name:gd": "Uamh a' Bhreagaire", "natural": "cave_entrance", "source": "survey"}}, {"type": "node", "id": 3958772535, "lat": 57.4270481, "lon": -5.8041246, "tags": {"name": "Uamh a' Bhreagaire", "name:en": "Cave of the Liar", "name:gd": "Uamh a' Bhreagaire", "natural": "cave_entrance", "source": "survey"}}, {"type": "node", "id": 3964946697, "lat": 57.4372884, "lon": -5.5643128, "tags": {"name": "Triangle Cave", "natural": "cave_entrance", "source": "survey"}}, {"type": "node", "id": 3964946698, "lat": 57.4378128, "lon": -5.563882, "tags": {"name": "Wee Beastie Cave", "natural": "cave_entrance", "source": "survey"}}, {"type": "node", "id": 4686871172, "lat": 57.4268689, "lon": -5.8041018, "tags": {"cave:depth": "5", "name": "slot dig", "natural": "cave_entrance", "source": "knowledge"}}, {"type": "node", "id": 6437038168, "lat": 57.4271002, "lon": -5.8045664, "tags": {"cave:depth": "32", "cave:length": "790", "name": "Uamh na h-Aiseirigh", "name:en": "Ashery Pot", "name:gd": "Uamh na h-Aiseirigh", "natural": "cave_entrance"}}, {"type": "node", "id": 6578288164, "lat": 57.5406383, "lon": -5.967455, "tags": {"name": "Uamh an Fhuamhaire", "name:en": "Church Cave", "name:gd": "Uamh an Fhuamhaire", "natural": "cave_entrance", "note": "Used as a place of worship until a church was built at An Acarsaid Thioram"}}, {"type": "node", "id": 8071258720, "lat": 57.5486764, "lon": -5.6580974, "tags": {"name": "Puffin Rock", "natural": "cave_entrance"}}, {"type": "node", "id": 8071294260, "lat": 57.4413684, "lon": -5.5723472, "tags": {"name": "Dam Waterfall Pot", "natural": "cave_entrance"}}, {"type": "node", "id": 8786433865, "lat": 57.4316969, "lon": -5.8025327, "tags": {"alt_name:en": "Blacksmith's Cave", "alt_name:gd": "Uamh a' Ghobha", "name": "Brindle's Rift", "name:en": "Brindle's Rift", "name:gd": "Sgoltadh Bhrindle", "natural": "cave_entrance"}}, {"type": "node", "id": 8786482984, "lat": 57.4371481, "lon": -5.563143, "tags": {"name": "Hourglass Cave", "natural": "cave_entrance"}}, {"type": "node", "id": 8786482994, "lat": 57.4313911, "lon": -5.5763537, "tags": {"name": "Diamond Dig", "natural": "cave_entrance"}}, {"type": "node", "id": 8786482995, "lat": 57.4320824, "lon": -5.5766133, "tags": {"name": "Steve's Arse Hole", "natural": "cave_entrance", "note": "temporary name"}}, {"type": "node", "id": 8786482996, "lat": 57.4321911, "lon": -5.576302, "tags": {"name": "Knave's Pot", "natural": "cave_entrance"}}, {"type": "node", "id": 9668897709, "lat": 57.1618123, "lon": -5.68923, "tags": {"natural": "cave_entrance"}}]}