{"version": 0.6, "generator": "Overpass API 0.7.62.5 1bd436f1", "osm3s": {"timestamp_osm_base": "2025-04-16T22:03:00Z", "copyright": "The data included in this document is from www.openstreetmap.org. The data is made available under ODbL."}, "elements": [{"type": "node", "id": 2328317135, "lat": 56.7504597, "lon": -3.1577083, "tags": {"name": "Clinking Cauldron", "name:gd": "Cluain Cinn Ghobhaldruim", "natural": "hill", "place": "locality"}}, {"type": "node", "id": 2436818350, "lat": 56.820099, "lon": -3.0723873, "tags": {"ele": "434", "name": "Elf Hillock", "natural": "hill"}}, {"type": "node", "id": 2436863362, "lat": 56.8414169, "lon": -3.2117914, "tags": {"name": "Little Driesh", "natural": "hill", "place": "locality"}}, {"type": "node", "id": 2437253510, "lat": 56.8940492, "lon": -3.1591276, "tags": {"name": "Capel Mounth", "natural": "hill", "place": "locality"}}, {"type": "node", "id": 6698179264, "lat": 56.7370595, "lon": -3.1264462, "tags": {"name": "Shank of Badmorrow", "natural": "hill"}}, {"type": "node", "id": 6698232558, "lat": 56.7319712, "lon": -3.1913911, "tags": {"name": "Shoulder of Badagee", "name:gd": "Badaidh Gaoithe", "natural": "hill"}}, {"type": "node", "id": 6698232559, "lat": 56.721482, "lon": -3.1879793, "tags": {"name": "Craigs of Moorleathers", "natural": "hill"}}, {"type": "node", "id": 6698232560, "lat": 56.7238249, "lon": -3.1926785, "tags": {"name": "Clashindall", "name:gd": "Clais an Dail", "natural": "hill"}}, {"type": "node", "id": 6698267233, "lat": 56.8547968, "lon": -2.814594, "tags": {"name": "Shank of Auchnafoe", "natural": "hill"}}, {"type": "node", "id": 6698267235, "lat": 56.8535297, "lon": -2.825237, "tags": {"name": "West Craig", "natural": "hill"}}, {"type": "node", "id": 6698281389, "lat": 56.8090677, "lon": -2.9596748, "tags": {"name": "Balbui", "name:gd": "Baile Bhuidhe", "natural": "hill"}}, {"type": "node", "id": 7355034869, "lat": 56.7981698, "lon": -3.269652, "tags": {"name": "The Banks", "natural": "hill"}}, {"type": "node", "id": 8544942453, "lat": 56.841358, "lon": -3.108029, "tags": {"name": "Gallows Knowe", "natural": "hill"}}, {"type": "node", "id": 8544942466, "lat": 56.8883961, "lon": -3.149622, "tags": {"name": "The Glasslet", "natural": "hill"}}, {"type": "node", "id": 8931558451, "lat": 56.8489458, "lon": -3.1061718, "tags": {"name": "Tom Baith", "natural": "hill", "place": "locality"}}, {"type": "node", "id": 8931558452, "lat": 56.8509131, "lon": -3.1095621, "tags": {"name": "Meikle Tulloch", "natural": "hill", "place": "locality"}}, {"type": "node", "id": 9148046307, "lat": 56.8059961, "lon": -3.0733804, "tags": {"name": "Downie Hillock", "natural": "hill"}}, {"type": "node", "id": 9148046308, "lat": 56.8072296, "lon": -3.0759124, "tags": {"name": "Sleepy Hillock", "natural": "hill"}}, {"type": "node", "id": 9148153394, "lat": 56.823008, "lon": -3.0608423, "tags": {"name": "Gwesk Hillock", "natural": "hill", "place": "locality"}}, {"type": "node", "id": 9148159137, "lat": 56.8944057, "lon": -3.1950979, "tags": {"name": "The Strone", "natural": "hill"}}, {"type": "node", "id": 9148159160, "lat": 56.9010034, "lon": -3.1810861, "tags": {"name": "The Gourock", "name:gd": "An Guireag", "natural": "hill", "place": "locality"}}, {"type": "node", "id": 9150102646, "lat": 56.7771966, "lon": -2.9319262, "tags": {"name": "Mid Shank", "natural": "hill", "place": "locality"}}, {"type": "node", "id": 9451458680, "lat": 56.8500512, "lon": -3.0778474, "tags": {"alt_name": "Witters", "name": "Brown Holm", "natural": "hill", "place": "locality"}}, {"type": "node", "id": 9451509715, "lat": 56.7843458, "lon": -2.8654522, "tags": {"name": "Bruff Shank", "natural": "hill", "place": "locality"}}, {"type": "node", "id": 9457745627, "lat": 56.9000811, "lon": -2.9732689, "tags": {"name": "Craig Nann", "natural": "hill", "place": "locality"}}, {"type": "node", "id": 9457747275, "lat": 56.8852581, "lon": -2.9806419, "tags": {"name": "Skuiley", "natural": "hill", "place": "locality"}}, {"type": "node", "id": 9457826595, "lat": 56.874006, "lon": -3.3163908, "tags": {"name": "Sr\u00f2n Reidhe", "natural": "hill", "place": "locality"}}, {"type": "node", "id": 9457826596, "lat": 56.8743812, "lon": -3.3110478, "tags": {"name": "Sr\u00f2n Bhorrach", "natural": "hill", "place": "locality"}}, {"type": "node", "id": 9457826610, "lat": 56.88015, "lon": -3.346925, "tags": {"name": "Craigie Glasallt", "natural": "hill", "place": "locality"}}, {"type": "node", "id": 9457920074, "lat": 56.8044869, "lon": -3.1639136, "tags": {"name": "Cairn Broom", "natural": "hill", "place": "locality"}}, {"type": "node", "id": 9552387344, "lat": 56.8368691, "lon": -3.2335191, "tags": {"name": "Cairn Dye", "name:gd": "C\u00e0rn an T\u00e0illeir", "natural": "hill", "place": "locality"}}, {"type": "node", "id": 9552387345, "lat": 56.8300018, "lon": -3.2359009, "tags": {"name": "King's Seat", "natural": "hill", "place": "locality"}}, {"type": "node", "id": 9552405546, "lat": 56.7817683, "lon": -3.3799211, "tags": {"name": "Cairn Derig", "name:gd": "C\u00e0rn Dearg", "natural": "hill", "place": "locality"}}, {"type": "node", "id": 9590179579, "lat": 56.7685396, "lon": -3.073777, "tags": {"name": "Cairn Leith", "name:gd": "C\u00e0rn Liath", "natural": "hill", "place": "locality"}}, {"type": "node", "id": 9601969673, "lat": 56.8554362, "lon": -3.3264379, "tags": {"name": "Tom Mhoraire", "natural": "hill", "place": "locality"}}, {"type": "node", "id": 9601969676, "lat": 56.8479738, "lon": -3.3240991, "tags": {"name": "Spying Hillock", "natural": "hill", "place": "locality"}}, {"type": "node", "id": 9601969677, "lat": 56.845932, "lon": -3.316031, "tags": {"name": "Mid Strone", "natural": "hill", "place": "locality"}}, {"type": "node", "id": 10544419035, "lat": 56.7695628, "lon": -3.2474614, "tags": {"ele": "447", "name": "Clautschip", "natural": "hill"}}, {"type": "node", "id": 10547541348, "lat": 56.9649145, "lon": -2.8563583, "tags": {"name": "Hill of Corn", "natural": "hill", "place": "locality"}}]}