{"version": 0.6, "generator": "Overpass API 0.7.62.5 1bd436f1", "osm3s": {"timestamp_osm_base": "2025-04-16T18:53:33Z", "copyright": "The data included in this document is from www.openstreetmap.org. The data is made available under ODbL."}, "elements": [{"type": "node", "id": 16194637, "lat": 51.7380238, "lon": -4.6123415, "tags": {"access": "yes", "direction": "180", "ele": "0", "fee": "no", "natural": "cave_entrance", "source": "PGS"}}, {"type": "node", "id": 16194644, "lat": 51.7380996, "lon": -4.6117229, "tags": {"access": "yes", "direction": "180", "ele": "0", "fee": "no", "natural": "cave_entrance", "source": "PGS"}}, {"type": "node", "id": 247183322, "lat": 51.5392688, "lon": -4.2141051, "tags": {"name": "Culver Hole", "name:cy": "Twll Culver", "natural": "cave_entrance"}}, {"type": "node", "id": 1279116712, "lat": 51.561833, "lon": -4.2880945, "tags": {"name": "Giant's Cave", "name:cy": "Ogof y Cawr", "natural": "cave_entrance"}}, {"type": "node", "id": 1279614435, "lat": 51.5537685, "lon": -4.262068, "tags": {"natural": "cave_entrance"}}, {"type": "node", "id": 1284742122, "lat": 51.544103, "lon": -4.237948, "tags": {"name": "Rockrose Hole", "name:cy": "Twll Rhosyn Roc", "natural": "cave_entrance", "source": "ground_survey"}}, {"type": "node", "id": 1765548986, "lat": 51.55059, "lon": -4.256388, "tags": {"natural": "cave_entrance"}}, {"type": "node", "id": 1791830965, "lat": 51.5501438, "lon": -4.2555167, "tags": {"alt_name": "Goat's Cave", "name": "Paviland Cave", "name:cy": "Ogof Penifei", "natural": "cave_entrance", "wikidata": "Q122220382"}}, {"type": "node", "id": 2305808024, "lat": 51.5418877, "lon": -4.2283333, "tags": {"natural": "cave_entrance"}}, {"type": "node", "id": 2799292729, "lat": 51.553587, "lon": -4.2601541, "tags": {"name": "Deborah's Cliff Shelter", "name:cy": "Lloches Clogwyn Deborah", "natural": "cave_entrance"}}, {"type": "node", "id": 2799292730, "lat": 51.5537019, "lon": -4.2604226, "tags": {"natural": "cave_entrance"}}, {"type": "node", "id": 2799292731, "lat": 51.553768, "lon": -4.260621, "tags": {"name": "Deborah's Hole", "name:cy": "Twll Deborah", "natural": "cave_entrance"}}, {"type": "node", "id": 2799292732, "lat": 51.5538499, "lon": -4.2605046, "tags": {"natural": "cave_entrance"}}, {"type": "node", "id": 2806579306, "lat": 51.5513473, "lon": -4.2535566, "tags": {"name": "Fox Hole Slade Cave", "name:cy": "Ogof Slade Twll Llwynog", "natural": "cave_entrance"}}, {"type": "node", "id": 2836048728, "lat": 51.5430453, "lon": -4.2348971, "tags": {"name": "Long Hole Cave", "name:cy": "Ogof Twll Hir", "natural": "cave_entrance", "source": "survey", "wikidata": "Q28220067"}}, {"type": "node", "id": 2841576334, "lat": 51.5476815, "lon": -4.2479832, "tags": {"name": "Upper Blackhole Cave", "name:cy": "Ogof Twll Du Uchaf", "natural": "cave_entrance", "source": "survey"}}, {"type": "node", "id": 2886224632, "lat": 51.54911, "lon": -4.2515599, "tags": {"natural": "cave_entrance"}}, {"type": "node", "id": 2914821456, "lat": 51.5570769, "lon": -4.270571, "tags": {"name": "Mansel's Shelter", "name:cy": "Lloches Mansel", "natural": "cave_entrance", "source_name": "http://www.cambriancavingcouncil.org.uk/registry/ccr_registry_view.php?ID=1564"}}, {"type": "node", "id": 2914821457, "lat": 51.5579022, "lon": -4.2710917, "tags": {"natural": "cave_entrance"}}, {"type": "node", "id": 2919249069, "lat": 51.562445, "lon": -4.2773734, "tags": {"name": "Mewslade Cave", "name:cy": "Ogof Mewslade", "natural": "cave_entrance", "source_name": "http://www.ogof.org.uk/Gower-Cave-Location-Map.html"}}, {"type": "node", "id": 2919249070, "lat": 51.5645504, "lon": -4.2746521, "tags": {"name": "Mewslade Quarry Cave - Left Entrance", "name:cy": "Ogof Chwarel Mewslade - Mynedfa Chwith", "natural": "cave_entrance", "source_name": "http://www.ogof.org.uk/Gower-Cave-Location-Map.html"}}, {"type": "node", "id": 2919249071, "lat": 51.5645594, "lon": -4.2745665, "tags": {"name": "Mewslade Quarry Cave", "name:cy": "Ogof Chwarel Mewslade", "natural": "cave_entrance", "source_name": "http://www.ogof.org.uk/Gower-Cave-Location-Map.html"}}, {"type": "node", "id": 2919249072, "lat": 51.5635965, "lon": -4.2766696, "tags": {"name": "Mewslade Rock Cave", "name:cy": "Ogof Graig Mewslade", "natural": "cave_entrance", "source_name": "http://www.ogof.org.uk/Gower-Cave-Location-Map.html"}}, {"type": "node", "id": 2919249073, "lat": 51.5618711, "lon": -4.2782873, "tags": {"natural": "cave_entrance"}}, {"type": "node", "id": 2919249074, "lat": 51.5624062, "lon": -4.2774193, "tags": {"natural": "cave_entrance"}}, {"type": "node", "id": 2926267796, "lat": 51.5540247, "lon": -4.2617166, "tags": {"name": "Short Cave", "name:cy": "Ogof Fer", "natural": "cave_entrance", "source_name": "http://www.ogof.org.uk/Gower-Cave-Location-Map.html"}}, {"type": "node", "id": 2926267797, "lat": 51.542084, "lon": -4.233961, "tags": {"natural": "cave_entrance"}}, {"type": "node", "id": 2926267798, "lat": 51.5426825, "lon": -4.2338564, "tags": {"natural": "cave_entrance"}}, {"type": "node", "id": 3142574637, "lat": 51.7381428, "lon": -4.6105218, "tags": {"access": "yes", "direction": "180", "ele": "0", "fee": "no", "natural": "cave_entrance"}}, {"type": "node", "id": 3151132903, "lat": 51.7377923, "lon": -4.6138671, "tags": {"access": "yes", "direction": "180", "ele": "0", "fee": "no", "natural": "cave_entrance"}}, {"type": "node", "id": 3151132906, "lat": 51.7379032, "lon": -4.6135769, "tags": {"access": "yes", "direction": "180", "ele": "0", "fee": "no", "natural": "cave_entrance"}}, {"type": "node", "id": 3151132925, "lat": 51.7381447, "lon": -4.613129, "tags": {"access": "yes", "direction": "180", "ele": "0", "fee": "no", "natural": "cave_entrance"}}, {"type": "node", "id": 3151194877, "lat": 51.7371488, "lon": -4.616184, "tags": {"access": "yes", "direction": "180", "ele": "0", "fee": "no", "natural": "cave_entrance"}}, {"type": "node", "id": 3151194915, "lat": 51.7371824, "lon": -4.6170971, "tags": {"access": "yes", "direction": "182", "ele": "0", "fee": "no", "natural": "cave_entrance"}}, {"type": "node", "id": 3781137778, "lat": 51.5419802, "lon": -4.2337946, "tags": {"natural": "cave_entrance", "source": "ground_survey"}}, {"type": "node", "id": 4693318944, "lat": 51.7020339, "lon": -4.6908093, "tags": {"natural": "cave_entrance"}}, {"type": "node", "id": 6765361915, "lat": 51.5654145, "lon": -4.3290358, "tags": {"fee": "no", "natural": "cave_entrance"}}, {"type": "node", "id": 6795698028, "lat": 51.620314, "lon": -4.9004481}, {"type": "node", "id": 6795698029, "lat": 51.6204778, "lon": -4.9004652}, {"type": "node", "id": 6795698030, "lat": 51.6205391, "lon": -4.9004708}, {"type": "node", "id": 6795698031, "lat": 51.6206051, "lon": -4.9004727}, {"type": "node", "id": 7089586405, "lat": 51.6427065, "lon": -4.7743914, "tags": {"name": "Church Doors", "natural": "cave_entrance"}}, {"type": "node", "id": 7089586406, "lat": 51.6424033, "lon": -4.7752446, "tags": {"description": "Tunnel access between the two coves at low tide.", "natural": "cave_entrance"}}, {"type": "node", "id": 7258632494, "lat": 51.555362, "lon": -4.265718, "tags": {"natural": "cave_entrance"}}, {"type": "node", "id": 9646574669, "lat": 51.6388987, "lon": -4.8015864, "tags": {"access": "yes", "direction": "180", "ele": "0", "fee": "no", "name": "Rook's Cave", "natural": "cave_entrance"}}, {"type": "node", "id": 9647991121, "lat": 51.6211819, "lon": -4.89975, "tags": {"access": "yes", "direction": "200", "ele": "0", "fee": "no", "name": "Lorts Cave", "natural": "cave_entrance"}}, {"type": "way", "id": 724599280, "nodes": [6795698028, 6795698029, 6795698030, 6795698031], "tags": {"natural": "cave_entrance", "source": "Bing"}}]}