{"version": 0.6, "generator": "Overpass API 0.7.62.5 1bd436f1", "osm3s": {"timestamp_osm_base": "2025-04-16T18:52:29Z", "copyright": "The data included in this document is from www.openstreetmap.org. The data is made available under ODbL."}, "elements": [{"type": "node", "id": 621360086, "lat": 57.2064103, "lon": -5.9734984, "tags": {"natural": "cave_entrance", "source": "survey"}}, {"type": "node", "id": 621360159, "lat": 57.2063981, "lon": -5.9754471, "tags": {"natural": "cave_entrance", "source": "survey"}}, {"type": "node", "id": 621360451, "lat": 57.2063168, "lon": -5.9721732, "tags": {"natural": "cave_entrance", "source": "survey"}}, {"type": "node", "id": 621410954, "lat": 57.202467, "lon": -5.975374, "tags": {"natural": "cave_entrance", "source": "survey"}}, {"type": "node", "id": 621410955, "lat": 57.2047289, "lon": -5.9723282, "tags": {"natural": "cave_entrance", "source": "survey"}}, {"type": "node", "id": 621410956, "lat": 57.2054813, "lon": -5.9825204, "tags": {"name": "Iris Cave", "natural": "cave_entrance", "source": "survey"}}, {"type": "node", "id": 621410957, "lat": 57.2063346, "lon": -5.975575, "tags": {"name": "Ivy Chamber Cave", "natural": "cave_entrance", "source": "survey"}}, {"type": "node", "id": 621410958, "lat": 57.2063029, "lon": -5.9755499, "tags": {"name": "Ivy Resurgence Cave", "natural": "cave_entrance", "source": "survey"}}, {"type": "node", "id": 621410959, "lat": 57.206266, "lon": -5.9755878, "tags": {"name": "Ivy Hole Resurgence", "natural": "cave_entrance", "source": "survey"}}, {"type": "node", "id": 621410966, "lat": 57.206167, "lon": -5.9755693, "tags": {"name": "Ivy Hole lower entrance", "natural": "cave_entrance", "source": "survey"}}, {"type": "node", "id": 621410972, "lat": 57.2056652, "lon": -5.975749, "tags": {"cave:length": "74", "name": "Ivy Hole", "name:en": "Ivy Hole", "name:gd": "Poll Eidheann", "natural": "cave_entrance", "ref": "4", "source": "survey"}}, {"type": "node", "id": 621411069, "lat": 57.2053223, "lon": -5.9761112, "tags": {"cave:depth": "3", "natural": "cave_entrance", "ref": "41", "source": "survey"}}, {"type": "node", "id": 621411072, "lat": 57.2053046, "lon": -5.9761352, "tags": {"natural": "cave_entrance", "source": "survey"}}, {"type": "node", "id": 621411074, "lat": 57.2052778, "lon": -5.9761379, "tags": {"natural": "cave_entrance", "source": "survey"}}, {"type": "node", "id": 621411079, "lat": 57.2050647, "lon": -5.975693, "tags": {"natural": "cave_entrance", "source": "survey"}}, {"type": "node", "id": 621411089, "lat": 57.2050475, "lon": -5.9754741, "tags": {"natural": "cave_entrance", "source": "survey"}}, {"type": "node", "id": 621411095, "lat": 57.2059478, "lon": -5.9742887, "tags": {"natural": "cave_entrance", "source": "survey"}}, {"type": "node", "id": 621411100, "lat": 57.2060433, "lon": -5.974126, "tags": {"cave:length": "4.6", "natural": "cave_entrance", "ref": "5", "source": "survey"}}, {"type": "node", "id": 621411105, "lat": 57.2061428, "lon": -5.9737758, "tags": {"cave:depth": "7.6", "cave:length": "26", "name": "Uamh Sgoilte", "name:en": "Slit Cave", "name:gd": "Uamh Sgoilte", "natural": "cave_entrance", "ref": "6", "source": "survey"}}, {"type": "node", "id": 621411111, "lat": 57.2062982, "lon": -5.9733793, "tags": {"name": "Razor Rift", "name:en": "Razor Rift", "name:gd": "Sgoltach nam Bearrsgian", "natural": "cave_entrance", "source": "survey"}}, {"type": "node", "id": 621411116, "lat": 57.206136, "lon": -5.9726267, "tags": {"natural": "cave_entrance", "source": "survey"}}, {"type": "node", "id": 621411118, "lat": 57.2062221, "lon": -5.9725083, "tags": {"natural": "cave_entrance", "source": "survey"}}, {"type": "node", "id": 655156568, "lat": 57.2054701, "lon": -5.9727816, "tags": {"cave:length": "3", "natural": "cave_entrance", "ref": "10", "source": "survey"}}, {"type": "node", "id": 655156569, "lat": 57.2049918, "lon": -5.9724092, "tags": {"name": "Beer Cellar Pot", "name:en": "Beer Cellar Pot", "name:gd": "Seilear Leann", "natural": "cave_entrance", "source": "survey"}}, {"type": "node", "id": 655156570, "lat": 57.2049914, "lon": -5.9724231, "tags": {"name": "Uamh an t-Sill (East entrance)", "natural": "cave_entrance", "source": "survey"}}, {"type": "node", "id": 655156571, "lat": 57.2049386, "lon": -5.9726635, "tags": {"name": "Uamh an t-Sill (Pothole entrance)", "natural": "cave_entrance", "source": "survey"}}, {"type": "node", "id": 655156573, "lat": 57.2048794, "lon": -5.9726768, "tags": {"name": "Uamh an t-Sill (main entrance)", "natural": "cave_entrance", "source": "survey"}}, {"type": "node", "id": 655156574, "lat": 57.2048149, "lon": -5.9726285, "tags": {"name": "Uamh an t-Sill (South entrance)", "natural": "cave_entrance", "source": "survey"}}, {"type": "node", "id": 655156576, "lat": 57.2049968, "lon": -5.9729815, "tags": {"cave:depth": "12.2", "cave:length": "76", "name": "Cave of the Woods", "name:en": "Cave of the Woods", "name:gd": "Uamh Coille", "natural": "cave_entrance", "ref": "8", "source": "survey"}}, {"type": "node", "id": 655163052, "lat": 57.2048909, "lon": -5.9850628, "tags": {"name": "High Pasture Cave", "name:gd": "Uamh an \u00c0rd-achaidh", "natural": "cave_entrance", "source": "survey", "wikidata": "Q538929", "wikipedia": "en:High Pasture Cave"}}, {"type": "node", "id": 732142816, "lat": 57.1423804, "lon": -6.0668718, "tags": {"natural": "cave_entrance", "source": "survey"}}, {"type": "node", "id": 1500072292, "lat": 57.1632816, "lon": -6.3029753, "tags": {"natural": "cave_entrance"}}, {"type": "node", "id": 3545056727, "lat": 57.1349649, "lon": -6.1057177, "tags": {"name": "Prince Charles' Cave", "name:gd": "Uamh a' Phrionnsa", "natural": "cave_entrance"}}, {"type": "node", "id": 3797499920, "lat": 57.1405907, "lon": -6.0711205, "tags": {"name": "Sloc Altramain", "name:en": "Spar Cave", "name:gd": "Sloc Altramain", "natural": "cave_entrance"}}, {"type": "node", "id": 9022992916, "lat": 57.1954796, "lon": -6.0004931, "tags": {"name": "Camas Malaig Cave", "natural": "cave_entrance"}}, {"type": "node", "id": 9023007417, "lat": 57.1927476, "lon": -5.9959199, "tags": {"name": "Uamh Sgeinne", "name:en": "Cave of Knives", "name:gd": "Uamh Sgeinne", "natural": "cave_entrance"}}, {"type": "node", "id": 9023007418, "lat": 57.1951363, "lon": -6.0009284, "tags": {"natural": "cave_entrance"}}, {"type": "node", "id": 9023007419, "lat": 57.194981, "lon": -6.0008426, "tags": {"natural": "cave_entrance"}}, {"type": "node", "id": 9023007420, "lat": 57.1948323, "lon": -6.0011824, "tags": {"natural": "cave_entrance"}}, {"type": "node", "id": 9023007421, "lat": 57.1928194, "lon": -5.9956418, "tags": {"natural": "cave_entrance"}}, {"type": "node", "id": 9023007422, "lat": 57.1930074, "lon": -5.9951908, "tags": {"name": "Water-slide Cave", "natural": "cave_entrance"}}, {"type": "node", "id": 9023007423, "lat": 57.1932832, "lon": -5.9923782, "tags": {"name": "Beinn an Dubhaich Cave", "natural": "cave_entrance"}}, {"type": "node", "id": 9023007424, "lat": 57.1933042, "lon": -5.9919392, "tags": {"natural": "cave_entrance"}}, {"type": "node", "id": 9023007425, "lat": 57.1930847, "lon": -5.9924459, "tags": {"natural": "cave_entrance"}}, {"type": "node", "id": 9624849410, "lat": 57.4916503, "lon": -6.0305129, "tags": {"name": "Uamh nan Daoine", "natural": "cave_entrance"}}, {"type": "node", "id": 9937780657, "lat": 57.4559286, "lon": -6.139394, "tags": {"name": "Prince Charles's Cave", "natural": "cave_entrance"}}, {"type": "node", "id": 9938018981, "lat": 57.4060535, "lon": -6.1471925, "tags": {"natural": "cave_entrance"}}, {"type": "node", "id": 9938018982, "lat": 57.406038, "lon": -6.1465677, "tags": {"natural": "cave_entrance"}}, {"type": "node", "id": 9938018983, "lat": 57.4060387, "lon": -6.1468157, "tags": {"natural": "cave_entrance"}}, {"type": "node", "id": 9938018984, "lat": 57.4060535, "lon": -6.1474501, "tags": {"natural": "cave_entrance"}}, {"type": "node", "id": 9938018986, "lat": 57.4059501, "lon": -6.141243, "tags": {"name": "Tom Cave", "natural": "cave_entrance"}}, {"type": "node", "id": 9942478802, "lat": 57.1703491, "lon": -5.9943041, "tags": {"name": "Calaman Cave", "natural": "cave_entrance"}}, {"type": "node", "id": 10056946309, "lat": 57.1557248, "lon": -6.1079592, "tags": {"name": "Uamh Mairearad Rois", "natural": "cave_entrance"}}, {"type": "node", "id": 10067722520, "lat": 57.125885, "lon": -5.9945856, "tags": {"name": "Uamh Tharsgabhaig", "natural": "cave_entrance"}}, {"type": "node", "id": 11079427353, "lat": 57.4888043, "lon": -5.997977, "tags": {"name": "Uamh Mh\u00f2r", "natural": "cave_entrance"}}]}