{"version": 0.6, "generator": "Overpass API 0.7.62.5 1bd436f1", "osm3s": {"timestamp_osm_base": "2025-04-16T18:53:33Z", "copyright": "The data included in this document is from www.openstreetmap.org. The data is made available under ODbL."}, "elements": [{"type": "node", "id": 353580874, "lat": 53.3371869, "lon": -3.8382413, "tags": {"natural": "cave_entrance", "source": "NPE"}}, {"type": "node", "id": 3363604180, "lat": 53.3403906, "lon": -3.8707336, "tags": {"name": "Ogof Gwylan", "natural": "cave_entrance"}}, {"type": "node", "id": 3791705819, "lat": 53.3243565, "lon": -3.8458694, "tags": {"natural": "cave_entrance"}}, {"type": "node", "id": 3791725405, "lat": 53.3234162, "lon": -3.8495368, "tags": {"name": "Ogof Bys", "natural": "cave_entrance"}}, {"type": "node", "id": 3791725443, "lat": 53.32379, "lon": -3.84938, "tags": {"height": "0.5", "natural": "cave_entrance"}}, {"type": "node", "id": 3793198364, "lat": 53.3321191, "lon": -3.8314254, "tags": {"amenity": "shelter", "name": "Parisella's Caves", "name:cy": "Ogof\u00e2u Parisella", "natural": "cave_entrance", "shelter_type": "rock_shelter", "sport": "climbing"}}, {"type": "node", "id": 3793199482, "lat": 53.3371545, "lon": -3.8358338, "tags": {"name": "Pigeon's Cave", "name:cy": "Ogof Colomenod", "natural": "cave_entrance"}}, {"type": "node", "id": 3793199484, "lat": 53.3372545, "lon": -3.8758634, "tags": {"natural": "cave_entrance", "source": "Saw and photographed it from the place of former military academy."}}, {"type": "node", "id": 3793199486, "lat": 53.3372603, "lon": -3.8350381, "tags": {"name": "Lloches yr Afr", "natural": "cave_entrance"}}, {"type": "node", "id": 5023964285, "lat": 53.3379013, "lon": -3.8346987, "tags": {"name": "Dutchman's Cave", "name:cy": "Ogof Ellmyn", "natural": "cave_entrance"}}, {"type": "node", "id": 5023964286, "lat": 53.3367134, "lon": -3.840698, "tags": {"name": "Porth yr Helig Cave", "natural": "cave_entrance"}}, {"type": "node", "id": 5023988601, "lat": 53.3399182, "lon": -3.8570366, "tags": {"natural": "cave_entrance"}}, {"type": "node", "id": 5023988602, "lat": 53.3397782, "lon": -3.8566998, "tags": {"name": "Ogof Tudno", "natural": "cave_entrance"}}, {"type": "node", "id": 5023988603, "lat": 53.3398314, "lon": -3.855858}, {"type": "node", "id": 5023988604, "lat": 53.3399025, "lon": -3.8558723}, {"type": "node", "id": 5023988605, "lat": 53.3399385, "lon": -3.8557915}, {"type": "node", "id": 5023988606, "lat": 53.3399961, "lon": -3.8558049}, {"type": "node", "id": 5023988607, "lat": 53.3400009, "lon": -3.8557513}, {"type": "node", "id": 5023988608, "lat": 53.3399769, "lon": -3.8556735}, {"type": "node", "id": 5023988609, "lat": 53.3400041, "lon": -3.8555957}, {"type": "node", "id": 5023988610, "lat": 53.3399865, "lon": -3.8554589}, {"type": "node", "id": 5023988611, "lat": 53.3399305, "lon": -3.8553409}, {"type": "node", "id": 5023988612, "lat": 53.3399545, "lon": -3.8553462}, {"type": "node", "id": 5023988613, "lat": 53.3400345, "lon": -3.8554187}, {"type": "node", "id": 5023988614, "lat": 53.3401162, "lon": -3.8555206}, {"type": "node", "id": 5023988615, "lat": 53.3401306, "lon": -3.8556037}, {"type": "node", "id": 5023988616, "lat": 53.3401274, "lon": -3.8556654}, {"type": "node", "id": 5023988617, "lat": 53.3400874, "lon": -3.8556762}, {"type": "node", "id": 5023988618, "lat": 53.3400345, "lon": -3.8556869}, {"type": "node", "id": 5023988619, "lat": 53.3400313, "lon": -3.8557298}, {"type": "node", "id": 5023988620, "lat": 53.340081, "lon": -3.8557647}, {"type": "node", "id": 5023988621, "lat": 53.3401531, "lon": -3.8557727}, {"type": "node", "id": 5023988622, "lat": 53.3401611, "lon": -3.8558237}, {"type": "node", "id": 5023988623, "lat": 53.3401434, "lon": -3.8559015}, {"type": "node", "id": 5023988624, "lat": 53.3400794, "lon": -3.8559149}, {"type": "node", "id": 5023988625, "lat": 53.340049, "lon": -3.8558478}, {"type": "node", "id": 5023988626, "lat": 53.3399945, "lon": -3.8558478}, {"type": "node", "id": 5023988627, "lat": 53.3399801, "lon": -3.85588}, {"type": "node", "id": 5023988628, "lat": 53.3400025, "lon": -3.8559202}, {"type": "node", "id": 5023988629, "lat": 53.3400078, "lon": -3.8559973}, {"type": "node", "id": 5023988630, "lat": 53.340057, "lon": -3.8560597}, {"type": "node", "id": 5023988631, "lat": 53.3400858, "lon": -3.8561536}, {"type": "node", "id": 5023988632, "lat": 53.3401162, "lon": -3.8561938}, {"type": "node", "id": 5023988633, "lat": 53.3401146, "lon": -3.8562636}, {"type": "node", "id": 5023988634, "lat": 53.3400906, "lon": -3.8563413}, {"type": "node", "id": 5023988635, "lat": 53.3400378, "lon": -3.8563601}, {"type": "node", "id": 5023988636, "lat": 53.3400506, "lon": -3.8564889}, {"type": "node", "id": 5023988637, "lat": 53.3400345, "lon": -3.8565774}, {"type": "node", "id": 5023988638, "lat": 53.3400185, "lon": -3.8566203}, {"type": "node", "id": 5023988639, "lat": 53.3399353, "lon": -3.8566686}, {"type": "node", "id": 5023988640, "lat": 53.3399641, "lon": -3.8567383}, {"type": "node", "id": 5023988641, "lat": 53.3398952, "lon": -3.8568188}, {"type": "node", "id": 5023988642, "lat": 53.3398248, "lon": -3.8568054}, {"type": "node", "id": 5023988643, "lat": 53.3397911, "lon": -3.8567329}, {"type": "node", "id": 5023988644, "lat": 53.3397447, "lon": -3.8567276}, {"type": "node", "id": 5023988645, "lat": 53.3395365, "lon": -3.8567142}, {"type": "node", "id": 5023988646, "lat": 53.3395301, "lon": -3.8566766}, {"type": "node", "id": 5023988647, "lat": 53.3396262, "lon": -3.8566257}, {"type": "node", "id": 5023988648, "lat": 53.3397655, "lon": -3.8566257}, {"type": "node", "id": 5023988649, "lat": 53.3398264, "lon": -3.8565774}, {"type": "node", "id": 5023988650, "lat": 53.3398424, "lon": -3.856513}, {"type": "node", "id": 5023988651, "lat": 53.3398344, "lon": -3.8564245}, {"type": "node", "id": 5023988652, "lat": 53.3398904, "lon": -3.8562609}, {"type": "node", "id": 5023988653, "lat": 53.3399417, "lon": -3.8561911}, {"type": "node", "id": 5023988654, "lat": 53.3399465, "lon": -3.8561107}, {"type": "node", "id": 5023988655, "lat": 53.3399587, "lon": -3.8559941}, {"type": "node", "id": 5023988656, "lat": 53.3399192, "lon": -3.8559551}, {"type": "node", "id": 5023988657, "lat": 53.3398632, "lon": -3.8559095}, {"type": "node", "id": 5023988658, "lat": 53.3407312, "lon": -3.85853, "tags": {"name": "Ogof Hafnant", "natural": "cave_entrance"}}, {"type": "node", "id": 5023988659, "lat": 53.3411123, "lon": -3.856623, "tags": {"natural": "cave_entrance"}}, {"type": "node", "id": 5023988660, "lat": 53.3415703, "lon": -3.8559417, "tags": {"name": "Smuggler's Cave", "natural": "cave_entrance"}}, {"type": "node", "id": 5023988849, "lat": 53.3408292, "lon": -3.8706097, "tags": {"natural": "cave_entrance"}}, {"type": "node", "id": 5023988850, "lat": 53.341064, "lon": -3.8705508, "tags": {"name": "Ogof Llech", "natural": "cave_entrance"}}, {"type": "node", "id": 5023988885, "lat": 53.3387117, "lon": -3.8725712, "tags": {"name": "Ogof y Gaseg", "natural": "cave_entrance"}}, {"type": "node", "id": 5023988888, "lat": 53.3396312, "lon": -3.877562, "tags": {"name": "Hornby Cave", "natural": "cave_entrance"}}, {"type": "node", "id": 5024076927, "lat": 53.3238169, "lon": -3.8505265, "tags": {"name": "Skeleton Cave", "natural": "cave_entrance"}}, {"type": "node", "id": 5024076928, "lat": 53.3251427, "lon": -3.8563231, "tags": {"name": "Miriam's Cave", "natural": "cave_entrance"}}, {"type": "node", "id": 5024076972, "lat": 53.3235288, "lon": -3.848627, "tags": {"name": "Ogof Arth", "natural": "cave_entrance"}}, {"type": "node", "id": 5024076973, "lat": 53.3234273, "lon": -3.8502193, "tags": {"natural": "cave_entrance"}}, {"type": "node", "id": 5024076974, "lat": 53.3230999, "lon": -3.8482956, "tags": {"natural": "cave_entrance"}}, {"type": "node", "id": 5024076975, "lat": 53.3235752, "lon": -3.8442112, "tags": {"name": "Ogof Abaty", "natural": "cave_entrance"}}, {"type": "node", "id": 5024076976, "lat": 53.3244416, "lon": -3.8440429, "tags": {"name": "Bedding Plane Cave", "natural": "cave_entrance"}}, {"type": "node", "id": 5024076977, "lat": 53.3244134, "lon": -3.8448188, "tags": {"name": "Ogof Defaid", "natural": "cave_entrance"}}, {"type": "node", "id": 5024076978, "lat": 53.3246117, "lon": -3.8428191, "tags": {"name": "Corkscrew Cave", "natural": "cave_entrance"}}, {"type": "node", "id": 5024076980, "lat": 53.3282989, "lon": -3.8349351, "tags": {"name": "Kendrick's Cave Upper East", "natural": "cave_entrance"}}, {"type": "node", "id": 5024077049, "lat": 53.3296752, "lon": -3.8333345, "tags": {"name": "Elephant Cave", "natural": "cave_entrance"}}, {"type": "node", "id": 5024077057, "lat": 53.3309156, "lon": -3.8405284, "tags": {"natural": "cave_entrance"}}, {"type": "node", "id": 5024159988, "lat": 53.3314069, "lon": -3.8303489, "tags": {"name": "Ogof Gan Mwd", "natural": "cave_entrance"}}, {"type": "node", "id": 5024159989, "lat": 53.3318837, "lon": -3.8305204, "tags": {"name": "Ogof Sinmai", "natural": "cave_entrance"}}, {"type": "node", "id": 5024159991, "lat": 53.3323634, "lon": -3.8309126, "tags": {"name": "Ogof Toddion", "natural": "cave_entrance"}}, {"type": "node", "id": 5024159992, "lat": 53.3360481, "lon": -3.831881, "tags": {"name": "Ogof Pen Trwyn", "natural": "cave_entrance"}}, {"type": "node", "id": 5024159993, "lat": 53.3364283, "lon": -3.8317618, "tags": {"name": "Ogof Haner Dydd", "natural": "cave_entrance"}}, {"type": "node", "id": 5024159994, "lat": 53.3313912, "lon": -3.831632, "tags": {"natural": "cave_entrance"}}, {"type": "node", "id": 5024163720, "lat": 53.3292068, "lon": -3.8355528, "tags": {"natural": "cave_entrance"}}, {"type": "node", "id": 5024163921, "lat": 53.3393786, "lon": -3.876121, "tags": {"natural": "cave_entrance"}}, {"type": "node", "id": 5024163922, "lat": 53.3282146, "lon": -3.8350531, "tags": {"name": "Kendrick's Cave Upper West", "natural": "cave_entrance"}}, {"type": "node", "id": 5024163923, "lat": 53.3282273, "lon": -3.8348615, "tags": {"name": "Kendrick's Cave Lower", "natural": "cave_entrance"}}, {"type": "node", "id": 5024174865, "lat": 53.3347753, "lon": -3.832815, "tags": {"natural": "cave_entrance"}}, {"type": "node", "id": 5024199624, "lat": 53.3291011, "lon": -3.8404634, "tags": {"name": "Ogof Deuben", "natural": "cave_entrance"}}, {"type": "node", "id": 5024199625, "lat": 53.3296028, "lon": -3.8283812, "tags": {"natural": "cave_entrance"}}, {"type": "node", "id": 5024199626, "lat": 53.3294621, "lon": -3.8282861, "tags": {"natural": "cave_entrance"}}, {"type": "node", "id": 5024199627, "lat": 53.329381, "lon": -3.8283071, "tags": {"natural": "cave_entrance"}}, {"type": "node", "id": 5110149020, "lat": 53.3279732, "lon": -3.7769085, "tags": {"natural": "cave_entrance"}}, {"type": "node", "id": 5110149721, "lat": 53.3256692, "lon": -3.7830735, "tags": {"name": "Dead Rabbit Cave", "natural": "cave_entrance"}}, {"type": "node", "id": 5110149722, "lat": 53.3270485, "lon": -3.7819537, "tags": {"name": "Chimney Cave", "natural": "cave_entrance"}}, {"type": "node", "id": 5110149723, "lat": 53.3277802, "lon": -3.7801486, "tags": {"name:cy": "Ogof Rhiwledyn", "name:en": "Rhiwledyn Cave", "natural": "cave_entrance"}}, {"type": "node", "id": 5110149954, "lat": 53.318022, "lon": -3.7907426, "tags": {"name": "Pant-y-wennol Cave", "name:cy": "Ogof Pant-y-wennol", "natural": "cave_entrance", "wikidata": "Q13130494", "wikipedia": "cy:Ogof Pant-y-Wennol"}}, {"type": "node", "id": 9489338973, "lat": 53.323715, "lon": -3.8511472, "tags": {"natural": "cave_entrance"}}, {"type": "node", "id": 9502328871, "lat": 53.3398679, "lon": -3.8558413}, {"type": "node", "id": 9502328872, "lat": 53.3398081, "lon": -3.8558293}, {"type": "node", "id": 9502328873, "lat": 53.3399659, "lon": -3.8560722}, {"type": "node", "id": 9502328875, "lat": 53.3399209, "lon": -3.8558584}, {"type": "node", "id": 9502328876, "lat": 53.3399196, "lon": -3.8558072}, {"type": "node", "id": 9502328886, "lat": 53.3401162, "lon": -3.8559072}, {"type": "node", "id": 9502641503, "lat": 53.3398875, "lon": -3.8546931, "tags": {"natural": "cave_entrance"}}, {"type": "node", "id": 9503202920, "lat": 53.3323164, "lon": -3.831364, "tags": {"amenity": "shelter", "name": "Parisella's Caves", "name:cy": "Ogof\u00e2u Parisella", "natural": "cave_entrance", "shelter_type": "rock_shelter", "sport": "climbing"}}, {"type": "node", "id": 9503202926, "lat": 53.3358679, "lon": -3.8327869, "tags": {"name": "Snail Cave", "natural": "cave_entrance"}}, {"type": "node", "id": 11112110571, "lat": 53.2873714, "lon": -3.6288819, "tags": {"natural": "cave_entrance"}}, {"type": "node", "id": 11112110572, "lat": 53.2870858, "lon": -3.6304272, "tags": {"natural": "cave_entrance"}}, {"type": "node", "id": 11112110573, "lat": 53.286962, "lon": -3.6305037, "tags": {"natural": "cave_entrance"}}, {"type": "node", "id": 12587527729, "lat": 53.268999, "lon": -3.9046711, "tags": {"access": "yes", "natural": "cave_entrance"}}, {"type": "way", "id": 514176941, "nodes": [5023988603, 9502328872, 9502328871, 5023988604, 9502328875, 9502328876, 5023988605, 5023988606, 5023988607, 5023988608, 5023988609, 5023988610, 5023988611, 5023988612, 5023988613, 5023988614, 5023988615, 5023988616, 5023988617, 5023988618, 5023988619, 5023988620, 5023988621, 5023988622, 5023988623, 9502328886, 5023988624, 5023988625, 5023988626, 5023988627, 5023988628, 5023988629, 5023988630, 5023988631, 5023988632, 5023988633, 5023988634, 5023988635, 5023988636, 5023988637, 5023988638, 5023988639, 5023988640, 5023988641, 5023988642, 5023988643, 5023988644, 5023988645, 5023988646, 5023988647, 5023988648, 5023988649, 5023988650, 5023988651, 5023988652, 5023988653, 5023988654, 9502328873, 5023988655, 5023988656, 5023988657, 5023988603], "tags": {"natural": "cave_entrance"}}]}